[{"OBJECT_NAME":"NORSAT 3","OBJECT_ID":"2021-034E","EPOCH":"2026-03-09T22:23:32.431200","MEAN_MOTION":15.04338407,"ECCENTRICITY":0.0005858,"INCLINATION":97.5427,"RA_OF_ASC_NODE":128.5959,"ARG_OF_PERICENTER":280.8366,"MEAN_ANOMALY":79.2201,"EPHEMERIS_TYPE":0,"CLASSIFICATION_TYPE":"U","NORAD_CAT_ID":48272,"ELEMENT_SET_NO":999,"REV_AT_EPOCH":26491,"BSTAR":0.00030361478,"MEAN_MOTION_DOT":4.174e-5,"MEAN_MOTION_DDOT":0},{"OBJECT_NAME":"STARLINK-5709","OBJECT_ID":"2023-020BE","EPOCH":"2026-03-09T21:48:47.400480","MEAN_MOTION":15.03308687,"ECCENTRICITY":0.00014848,"INCLINATION":43.0065,"RA_OF_ASC_NODE":350.3559,"ARG_OF_PERICENTER":266.3396,"MEAN_ANOMALY":93.7277,"EPHEMERIS_TYPE":0,"CLASSIFICATION_TYPE":"U","NORAD_CAT_ID":55621,"ELEMENT_SET_NO":999,"REV_AT_EPOCH":16910,"BSTAR":0.0067132125,"MEAN_MOTION_DOT":0.00093605,"MEAN_MOTION_DDOT":0}]
